HELIOS 2A               
1 28492U 04049A   22330.54251562  .00000766  00000+0  78511-4 0  9996
2 28492  98.2528 281.3101 0012763 271.2338  88.7428 14.93613179959310
SPIRALE A               
1 33751U 09008C   22329.52921017  .00000128  00000+0  39894-3 0  9997
2 33751   2.0609 100.7461 5456871 191.8797 146.4107  4.58889010202218
SPIRALE B               
1 33752U 09008D   22329.35731900  .00001543  00000+0  61358-3 0  9991
2 33752   2.2155  30.6157 6838465 322.5819   5.4954  2.83439766129635
SAPPHIRE                
1 39088U 13009C   22330.04938928  .00000059  00000+0  36210-4 0  9993
2 39088  98.4174 161.7273 0011866 151.4999 208.6838 14.34345326510309
